STARLINK-36088          
1 66941U 25286S   25360.91668981 -.02021276  00000+0 -32557-1 0  9997
2 66941  53.1598 339.8691 0001638  92.4201  29.9330 15.55468610  4263
STARLINK-36100          
1 66942U 25286T   25360.91668981 -.02017612  00000+0 -34940-1 0  9995
2 66942  53.1593 339.9164 0001272  79.7349  19.0207 15.53504661  4202
STARLINK-36109          
1 66943U 25286U   25360.91668981 -.02014766  00000+0 -34888-1 0  9994
2 66943  53.1595 339.9124 0001280  84.9818  15.6922 15.53502342  4209
STARLINK-36112          
1 66944U 25286V   25360.91668981 -.02018796  00000+0 -34963-1 0  9996
2 66944  53.1592 339.9080 0001325  83.0094  19.5806 15.53504383  4261
STARLINK-36110          
1 66945U 25286W   25360.91668981 -.02018843  00000+0 -34965-1 0  9992
2 66945  53.1590 339.9039 0001186  93.3564  11.1503 15.53504962  4260
STARLINK-36115          
1 66946U 25286X   25360.91668981 -.02023690  00000+0 -35054-1 0  9999
2 66946  53.1591 339.9001 0001255  89.2041  17.2181 15.53508000  4268
STARLINK-36089          
1 66947U 25286Y   25360.91668981 -.02017617  00000+0 -34941-1 0  9996
2 66947  53.1598 339.8916 0001340  93.9253  16.3316 15.53503779  4260
STARLINK-36116          
1 66948U 25286Z   25360.91668981 -.02022822  00000+0 -35038-1 0  9999
2 66948  53.1595 339.8959 0001255  93.5979  14.7419 15.53507048  4260
STARLINK-36096          
1 66949U 25286AA  25360.91668981 -.02019380  00000+0 -34973-1 0  9992
2 66949  53.1599 339.8880 0001397  94.1015  18.0735 15.53504358  4262
STARLINK-36111          
1 66950U 25286AB  25360.91668981 -.02018076  00000+0 -34948-1 0  9997
2 66950  53.1597 339.8800 0001390  79.9657  36.0416 15.53504276  4265
STARLINK-35999          
1 66951U 25286AC  25360.91668981 -.02021629  00000+0 -35017-1 0  9994
2 66951  53.1599 339.8758 0001223  95.4339  22.4911 15.53505937  4269
STARLINK-36122          
1 66952U 25286AD  25360.91668981 -.02021303  00000+0 -35010-1 0  9997
2 66952  53.1602 339.8840 0001277  89.4863  24.6050 15.53505893  4260
