CCSDS_OMM_VERS = 2.0
CREATION_DATE  = 
ORIGINATOR     = 

OBJECT_NAME    = STARLINK-36088
OBJECT_ID      = 2025-286S
CENTER_NAME    = EARTH
REF_FRAME      = TEME
TIME_SYSTEM    = UTC
MEAN_ELEMENT_THEORY = SGP/SGP4

EPOCH          = 2025-12-26T22:00:01.999584
MEAN_MOTION    = 15.55468610
ECCENTRICITY   = .00016382
INCLINATION    = 53.1598
RA_OF_ASC_NODE = 339.8691
ARG_OF_PERICENTER = 92.4201
MEAN_ANOMALY   = 29.9330

EPHEMERIS_TYPE = 0
CLASSIFICATION_TYPE = U
NORAD_CAT_ID   = 66941
ELEMENT_SET_NO = 999
REV_AT_EPOCH   = 426
BSTAR          = -.32557313E-1
MEAN_MOTION_DOT = -.2021276E-1
MEAN_MOTION_DDOT = 0

CCSDS_OMM_VERS = 2.0
CREATION_DATE  = 
ORIGINATOR     = 

OBJECT_NAME    = STARLINK-36100
OBJECT_ID      = 2025-286T
CENTER_NAME    = EARTH
REF_FRAME      = TEME
TIME_SYSTEM    = UTC
MEAN_ELEMENT_THEORY = SGP/SGP4

EPOCH          = 2025-12-26T22:00:01.999584
MEAN_MOTION    = 15.53504661
ECCENTRICITY   = .00012724
INCLINATION    = 53.1593
RA_OF_ASC_NODE = 339.9164
ARG_OF_PERICENTER = 79.7349
MEAN_ANOMALY   = 19.0207

EPHEMERIS_TYPE = 0
CLASSIFICATION_TYPE = U
NORAD_CAT_ID   = 66942
ELEMENT_SET_NO = 999
REV_AT_EPOCH   = 420
BSTAR          = -.34940293E-1
MEAN_MOTION_DOT = -.2017612E-1
MEAN_MOTION_DDOT = 0

CCSDS_OMM_VERS = 2.0
CREATION_DATE  = 
ORIGINATOR     = 

OBJECT_NAME    = STARLINK-36109
OBJECT_ID      = 2025-286U
CENTER_NAME    = EARTH
REF_FRAME      = TEME
TIME_SYSTEM    = UTC
MEAN_ELEMENT_THEORY = SGP/SGP4

EPOCH          = 2025-12-26T22:00:01.999584
MEAN_MOTION    = 15.53502342
ECCENTRICITY   = .000128
INCLINATION    = 53.1595
RA_OF_ASC_NODE = 339.9124
ARG_OF_PERICENTER = 84.9818
MEAN_ANOMALY   = 15.6922

EPHEMERIS_TYPE = 0
CLASSIFICATION_TYPE = U
NORAD_CAT_ID   = 66943
ELEMENT_SET_NO = 999
REV_AT_EPOCH   = 420
BSTAR          = -.34888048E-1
MEAN_MOTION_DOT = -.2014766E-1
MEAN_MOTION_DDOT = 0

CCSDS_OMM_VERS = 2.0
CREATION_DATE  = 
ORIGINATOR     = 

OBJECT_NAME    = STARLINK-36112
OBJECT_ID      = 2025-286V
CENTER_NAME    = EARTH
REF_FRAME      = TEME
TIME_SYSTEM    = UTC
MEAN_ELEMENT_THEORY = SGP/SGP4

EPOCH          = 2025-12-26T22:00:01.999584
MEAN_MOTION    = 15.53504383
ECCENTRICITY   = .0001325
INCLINATION    = 53.1592
RA_OF_ASC_NODE = 339.9080
ARG_OF_PERICENTER = 83.0094
MEAN_ANOMALY   = 19.5806

EPHEMERIS_TYPE = 0
CLASSIFICATION_TYPE = U
NORAD_CAT_ID   = 66944
ELEMENT_SET_NO = 999
REV_AT_EPOCH   = 426
BSTAR          = -.34962963E-1
MEAN_MOTION_DOT = -.2018796E-1
MEAN_MOTION_DDOT = 0

CCSDS_OMM_VERS = 2.0
CREATION_DATE  = 
ORIGINATOR     = 

OBJECT_NAME    = STARLINK-36110
OBJECT_ID      = 2025-286W
CENTER_NAME    = EARTH
REF_FRAME      = TEME
TIME_SYSTEM    = UTC
MEAN_ELEMENT_THEORY = SGP/SGP4

EPOCH          = 2025-12-26T22:00:01.999584
MEAN_MOTION    = 15.53504962
ECCENTRICITY   = .0001186
INCLINATION    = 53.1590
RA_OF_ASC_NODE = 339.9039
ARG_OF_PERICENTER = 93.3564
MEAN_ANOMALY   = 11.1503

EPHEMERIS_TYPE = 0
CLASSIFICATION_TYPE = U
NORAD_CAT_ID   = 66945
ELEMENT_SET_NO = 999
REV_AT_EPOCH   = 426
BSTAR          = -.34964735E-1
MEAN_MOTION_DOT = -.2018843E-1
MEAN_MOTION_DDOT = 0

CCSDS_OMM_VERS = 2.0
CREATION_DATE  = 
ORIGINATOR     = 

OBJECT_NAME    = STARLINK-36115
OBJECT_ID      = 2025-286X
CENTER_NAME    = EARTH
REF_FRAME      = TEME
TIME_SYSTEM    = UTC
MEAN_ELEMENT_THEORY = SGP/SGP4

EPOCH          = 2025-12-26T22:00:01.999584
MEAN_MOTION    = 15.53508000
ECCENTRICITY   = .00012552
INCLINATION    = 53.1591
RA_OF_ASC_NODE = 339.9001
ARG_OF_PERICENTER = 89.2041
MEAN_ANOMALY   = 17.2181

EPHEMERIS_TYPE = 0
CLASSIFICATION_TYPE = U
NORAD_CAT_ID   = 66946
ELEMENT_SET_NO = 999
REV_AT_EPOCH   = 426
BSTAR          = -.35053973E-1
MEAN_MOTION_DOT = -.202369E-1
MEAN_MOTION_DDOT = 0

CCSDS_OMM_VERS = 2.0
CREATION_DATE  = 
ORIGINATOR     = 

OBJECT_NAME    = STARLINK-36089
OBJECT_ID      = 2025-286Y
CENTER_NAME    = EARTH
REF_FRAME      = TEME
TIME_SYSTEM    = UTC
MEAN_ELEMENT_THEORY = SGP/SGP4

EPOCH          = 2025-12-26T22:00:01.999584
MEAN_MOTION    = 15.53503779
ECCENTRICITY   = .00013401
INCLINATION    = 53.1598
RA_OF_ASC_NODE = 339.8916
ARG_OF_PERICENTER = 93.9253
MEAN_ANOMALY   = 16.3316

EPHEMERIS_TYPE = 0
CLASSIFICATION_TYPE = U
NORAD_CAT_ID   = 66947
ELEMENT_SET_NO = 999
REV_AT_EPOCH   = 426
BSTAR          = -.34940735E-1
MEAN_MOTION_DOT = -.2017617E-1
MEAN_MOTION_DDOT = 0

CCSDS_OMM_VERS = 2.0
CREATION_DATE  = 
ORIGINATOR     = 

OBJECT_NAME    = STARLINK-36116
OBJECT_ID      = 2025-286Z
CENTER_NAME    = EARTH
REF_FRAME      = TEME
TIME_SYSTEM    = UTC
MEAN_ELEMENT_THEORY = SGP/SGP4

EPOCH          = 2025-12-26T22:00:01.999584
MEAN_MOTION    = 15.53507048
ECCENTRICITY   = .00012551
INCLINATION    = 53.1595
RA_OF_ASC_NODE = 339.8959
ARG_OF_PERICENTER = 93.5979
MEAN_ANOMALY   = 14.7419

EPHEMERIS_TYPE = 0
CLASSIFICATION_TYPE = U
NORAD_CAT_ID   = 66948
ELEMENT_SET_NO = 999
REV_AT_EPOCH   = 426
BSTAR          = -.35038398E-1
MEAN_MOTION_DOT = -.2022822E-1
MEAN_MOTION_DDOT = 0

CCSDS_OMM_VERS = 2.0
CREATION_DATE  = 
ORIGINATOR     = 

OBJECT_NAME    = STARLINK-36096
OBJECT_ID      = 2025-286AA
CENTER_NAME    = EARTH
REF_FRAME      = TEME
TIME_SYSTEM    = UTC
MEAN_ELEMENT_THEORY = SGP/SGP4

EPOCH          = 2025-12-26T22:00:01.999584
MEAN_MOTION    = 15.53504358
ECCENTRICITY   = .0001397
INCLINATION    = 53.1599
RA_OF_ASC_NODE = 339.8880
ARG_OF_PERICENTER = 94.1015
MEAN_ANOMALY   = 18.0735

EPHEMERIS_TYPE = 0
CLASSIFICATION_TYPE = U
NORAD_CAT_ID   = 66949
ELEMENT_SET_NO = 999
REV_AT_EPOCH   = 426
BSTAR          = -.34973489E-1
MEAN_MOTION_DOT = -.201938E-1
MEAN_MOTION_DDOT = 0

CCSDS_OMM_VERS = 2.0
CREATION_DATE  = 
ORIGINATOR     = 

OBJECT_NAME    = STARLINK-36111
OBJECT_ID      = 2025-286AB
CENTER_NAME    = EARTH
REF_FRAME      = TEME
TIME_SYSTEM    = UTC
MEAN_ELEMENT_THEORY = SGP/SGP4

EPOCH          = 2025-12-26T22:00:01.999584
MEAN_MOTION    = 15.53504276
ECCENTRICITY   = .00013909
INCLINATION    = 53.1597
RA_OF_ASC_NODE = 339.8800
ARG_OF_PERICENTER = 79.9657
MEAN_ANOMALY   = 36.0416

EPHEMERIS_TYPE = 0
CLASSIFICATION_TYPE = U
NORAD_CAT_ID   = 66950
ELEMENT_SET_NO = 999
REV_AT_EPOCH   = 426
BSTAR          = -.34948395E-1
MEAN_MOTION_DOT = -.2018076E-1
MEAN_MOTION_DDOT = 0

CCSDS_OMM_VERS = 2.0
CREATION_DATE  = 
ORIGINATOR     = 

OBJECT_NAME    = STARLINK-35999
OBJECT_ID      = 2025-286AC
CENTER_NAME    = EARTH
REF_FRAME      = TEME
TIME_SYSTEM    = UTC
MEAN_ELEMENT_THEORY = SGP/SGP4

EPOCH          = 2025-12-26T22:00:01.999584
MEAN_MOTION    = 15.53505937
ECCENTRICITY   = .00012231
INCLINATION    = 53.1599
RA_OF_ASC_NODE = 339.8758
ARG_OF_PERICENTER = 95.4339
MEAN_ANOMALY   = 22.4911

EPHEMERIS_TYPE = 0
CLASSIFICATION_TYPE = U
NORAD_CAT_ID   = 66951
ELEMENT_SET_NO = 999
REV_AT_EPOCH   = 426
BSTAR          = -.3501707E-1
MEAN_MOTION_DOT = -.2021629E-1
MEAN_MOTION_DDOT = 0

CCSDS_OMM_VERS = 2.0
CREATION_DATE  = 
ORIGINATOR     = 

OBJECT_NAME    = STARLINK-36122
OBJECT_ID      = 2025-286AD
CENTER_NAME    = EARTH
REF_FRAME      = TEME
TIME_SYSTEM    = UTC
MEAN_ELEMENT_THEORY = SGP/SGP4

EPOCH          = 2025-12-26T22:00:01.999584
MEAN_MOTION    = 15.53505893
ECCENTRICITY   = .00012772
INCLINATION    = 53.1602
RA_OF_ASC_NODE = 339.8840
ARG_OF_PERICENTER = 89.4863
MEAN_ANOMALY   = 24.6050

EPHEMERIS_TYPE = 0
CLASSIFICATION_TYPE = U
NORAD_CAT_ID   = 66952
ELEMENT_SET_NO = 999
REV_AT_EPOCH   = 426
BSTAR          = -.35010194E-1
MEAN_MOTION_DOT = -.2021303E-1
MEAN_MOTION_DDOT = 0

